PROPCUBE 2 (FAUNA)      
1 43052U 17071R   19055.92332331  .00002839  00000-0  78044-4 0  9995
2 43052  51.6378 247.9494 0002973 116.7359 243.3931 15.40753953 68515
CORVUS BC3              
1 43118U 18004H   19056.18534306  .00000582  00000-0  28087-4 0  9995
2 43118  97.5006 123.8503 0008979 293.1030  66.9259 15.22646426 62204
MICROMAS-2A             
1 43131U 18004W   19056.14610332  .00001386  00000-0  60765-4 0  9992
2 43131  97.5025 124.2650 0008027 295.9260  64.1149 15.23673298 62225
CICERO 7                
1 43143U 18004AJ  19056.18241794  .00001062  00000-0  46976-4 0  9990
2 43143  97.5015 124.5033 0006268 309.0837  50.9842 15.23891521 62243
GOMX-4B                 
1 43196U 18015E   19056.82759092  .00000299  00000-0  15328-4 0  9994
2 43196  97.3730 186.1000 0019237 349.1611  10.9215 15.23816366 59156
GOMX-4A                 
1 43197U 18015F   19056.76983338  .00000270  00000-0  14084-4 0  9997
2 43197  97.3741 186.0571 0019229 351.3030 114.5753 15.23912635 59156
1KUNS-PF                
1 43466U 98067NP  19056.69869564  .00013653  00000-0  15910-3 0  9994
2 43466  51.6377 186.1943 0000662  13.0628 347.0383 15.61989154 45231
UBAKUSAT                
1 43467U 98067NQ  19056.77506702  .00009215  00000-0  11742-3 0  9994
2 43467  51.6374 187.4496 0002561   4.1159 355.9855 15.60113226 45236
BATSU-CS1 (IRAZU)       
1 43468U 98067NR  19055.81708506  .00016958  00000-0  18562-3 0  9994
2 43468  51.6375 189.3012 0000552 347.0122  13.0858 15.63408946145101
CUBERRT                 
1 43546U 98067NU  19056.17603182  .00016634  00000-0  20430-3 0  9993
2 43546  51.6377 192.4404 0005549  64.3906 295.7660 15.60416858 35241
TEMPEST-D               
1 43547U 98067NV  19056.78470417  .00003006  00000-0  48182-4 0  9998
2 43547  51.6385 192.0013 0006232  64.4223 295.7412 15.56660960 34981
RAINCUBE                
1 43548U 98067NW  19056.85890692  .00009779  00000-0  13108-3 0  9990
2 43548  51.6370 190.2467 0005744  71.5285 288.6332 15.58669256 35468
HALOSAT                 
1 43549U 98067NX  19056.53878113  .00008150  00000-0  11059-3 0  9995
2 43549  51.6372 191.8617 0005699  73.8118 286.3501 15.58612191 34978
ENDUROSAT ONE           
1 43551U 98067NZ  19055.81651749  .00010799  00000-0  13933-3 0  9997
2 43551  51.6384 194.5399 0005963  77.8199 282.3461 15.59561555 35282
EQUISAT                 
1 43552U 98067PA  19056.24190005  .00009022  00000-0  12030-3 0  9993
2 43552  51.6386 192.8864 0006376  79.1308 281.0402 15.58921869 35300
AEROCUBE 12A            
1 43556U 18046C   19055.95592658  .00000379  00000-0  26311-4 0  9997
2 43556  51.6415 242.0767 0008755  28.0406 332.1044 15.28328316 34160
AEROCUBE 12B            
1 43557U 18046D   19056.87705122  .00000228  00000-0  20958-4 0  9996
2 43557  51.6418 237.7239 0008815  31.1488 329.0012 15.28250349 34251
UITMSAT-1               
1 43589U 98067PD  19056.75442064  .00010198  00000-0  13608-3 0  9992
2 43589  51.6362 191.0413 0005598  89.1578 271.0056 15.58734164 31119
MAYA-1                  
1 43590U 98067PE  19056.75107067  .00010021  00000-0  13372-3 0  9998
2 43590  51.6361 191.0202 0005705  88.9137 271.2509 15.58758390 31048
BHUTAN-1                
1 43591U 98067PF  19056.42506303  .00009415  00000-0  12582-3 0  9996
2 43591  51.6378 192.5988 0005868  89.2707 270.8958 15.58803344 30997
SIRIUSSAT-1             
1 43595U 98067PG  19056.74514641  .00009619  00000-0  13135-3 0  9990
2 43595  51.6369 191.7290 0003615  44.2071 315.9210 15.58198321 30210
SIRIUSSAT-2             
1 43596U 98067PH  19055.80172397  .00010107  00000-0  13857-3 0  9990
2 43596  51.6379 196.6985 0004214  42.7818 317.3502 15.58020761 30060
TANUSHA-3               
1 43597U 98067PJ  19055.88343563  .00011559  00000-0  15297-3 0  9996
2 43597  51.6363 195.7044 0003543  56.8990 303.2343 15.58806738 30086
SURFSAT                 
1 43614U 18070B   19056.26537934  .00001957  00000-0  54082-4 0  9999
2 43614  93.0375 316.8216 0017844  31.9961 328.2371 15.36986784 24983
CP7 (DAVE)              
1 43615U 18070C   19056.20150890  .00001930  00000-0  53426-4 0  9998
2 43615  93.0380 316.7956 0017882  31.7025 328.5301 15.36944203 24976
ELFIN-B                 
1 43616U 18070D   19055.79018682  .00002826  00000-0  77169-4 0  9999
2 43616  93.0337 316.5640 0019058  35.9730 324.2802 15.37308123 24912
ELFIN-A                 
1 43617U 18070E   19056.17715585  .00002900  00000-0  79142-4 0  9995
2 43617  93.0393 316.8512 0017897  32.0351 328.1986 15.37346818 24977
DEBRISSAT-1             
1 43621U 98067PM  19056.70473392  .00881595  38320-3  16034-2 0  9993
2 43621  51.6317 177.9359 0012687 345.6843  14.3680 16.00722432 25386
CUBEBEL-1 (BSUSAT-1)    
1 43666U 18083E   19056.79319171  .00000971  00000-0  52028-4 0  9992
2 43666  97.5305  81.9933 0014045 216.3943 229.5879 15.17324216 18161
DEBRISSAT-2             
1 43680U 98067PR  19056.85045182  .00016080  00000-0  21045-3 0  9995
2 43680  51.6401 190.9286 0003538  84.5786 275.5607 15.58767905 38974
CICERO 10               
1 43690U 18088A   19056.16152055  .00000781  00000-0  34987-4 0  9994
2 43690  85.0381  33.2239 0012920 263.4582  96.5187 15.19418267 16091
IRVINE01                
1 43693U 18088D   19056.46495897  .00002007  00000-0  88859-4 0  9994
2 43693  85.0358  32.8491 0016365 246.7831 113.1687 15.20858597 16155
PROXIMA I               
1 43694U 18088E   19056.17128299  .00000890  00000-0  38027-4 0  9992
2 43694  85.0325  32.9441 0017495 238.0547 121.8994 15.21166035 16112
PROXIMA II              
1 43696U 18088G   19056.17084675  .00000876  00000-0  37398-4 0  9997
2 43696  85.0325  32.9449 0017531 238.0153 121.9385 15.21172078 16115
FACSAT-1                
1 43721U 18096C   19056.82686631  .00000885  00000-0  37250-4 0  9994
2 43721  97.4725 126.8314 0018469  12.9898 347.1812 15.25930016 13522
CENTAURI-2              
1 43722U 18096D   19056.88644595  .00001376  00000-0  56080-4 0  9992
2 43722  97.4723 126.9055 0018563  13.5671 346.6062 15.26066844 13526
CORVUS-BC 4             
1 43767U 18099K   19056.84480794 -.00000270  00000-0 -19633-4 0  9996
2 43767  97.7556 130.0635 0011376 346.9921  13.1004 14.94519045 12563
SHIELDS 1               
1 43850U 18104B   19055.63404871  .00000041  00000-0  00000+0 0  9991
2 43850  85.0313 131.8374 0016263  36.5478 323.6902 15.20972049 10689
STF-1                   
1 43852U 18104D   19055.66441442  .00000041  00000-0  00000+0 0  9991
2 43852  85.0335 131.9122 0016712  50.8207 309.4625 15.20355569 10681
LUME 1                  
1 43908U 18111AJ  19056.88198357  .00000928  00000-0  40876-4 0  9994
2 43908  97.2979 325.1716 0022822  33.2976 326.9691 15.24072440  9262
AOBA VELOX-IV           
1 43940U 19003J   19056.84897949  .00001430  00000-0  62546-4 0  9997
2 43940  97.2918 118.0412 0026555 108.1965 341.9371 15.23365602  5903
CATSAT-2                
1 44029U 98067PV  19056.78480794  .00008182  00000-0  13046-3 0  9993
2 44029  51.6386 195.0013 0005343  88.9128 271.2474 15.54177772  4007
DELPHINI                
1 44030U 98067PW  19056.78462143  .00008647  00000-0  13727-3 0  9995
2 44030  51.6383 195.0000 0004870  86.8423 273.3124 15.54214282  3979
UNITE                   
1 44031U 98067PX  19056.78494615  .00005751  00000-0  94066-4 0  9994
2 44031  51.6386 195.0018 0003650  83.6965 276.4442 15.54123219  3979
TECHEDSAT 8             
1 44032U 98067PY  19056.77988322  .00016632  00000-0  25258-3 0  9993
2 44032  51.6383 194.9683 0003323  82.3092 277.8276 15.54706637  3956
CATSAT-1                
1 44033U 98067PZ  19055.82000957  .00006677  00000-0  10789-3 0  9999
2 44033  51.6388 199.8078 0005272  85.6617 274.4976 15.54159442  3763
